[{"OBJECT_ID":"1996-054A","OBJECT_NAME":"AMC-1 (GE-1)","NORAD_CAT_ID":"24315","OBJECT_TYPE":"PAYLOAD","PERIOD":"1436.073","INCLINATION":"0.9541","APOGEE":"35797.333","PERIGEE":"35774.952","ECCENTRICITY":"0.0002654","MEAN_MOTION":"1.00273403","TLE_LINE1":"1 24315U 96054A   16239.42792717  .00000030  00000-0  00000+0 0  9991","TLE_LINE2":"2 24315   0.9541  86.5770 0002654  79.0417 194.3824  1.00273403 73117","LAUNCH_DATE":"1996-09-08","LAUNCH_SITE":"AIR FORCE EASTERN TEST RANGE","OWNER":"SOCIÉTÉ EUROPÉENNE DES SATELLITES","ORBIT_TYPE":"Geosynchronous","OPERATIONAL_STATUS":"Operational","satInfo":{"lng":-110.56252203930752,"lat":2.8810995997553537,"elevation":-5.753315073679094,"azimuth":65.56252203930748,"range":42305.093077307574,"height":35767.07147568923,"velocity":3.0756496652929335},"x":-323.5177743368796,"y":118.74066312948221,"dx":-1.080258228876863,"dy":-2.8796984256273013,"maxAlt":341.88188167567597,"minAlt":341.6669409727221},{"OBJECT_ID":"1997-026A","OBJECT_NAME":"GALAXY 25 (TELSTAR 5)","NORAD_CAT_ID":"24812","OBJECT_TYPE":"PAYLOAD","PERIOD":"1436.071","INCLINATION":"0.0213","APOGEE":"35798.948","PERIGEE":"35773.270","ECCENTRICITY":"0.0003045","MEAN_MOTION":"1.00273525","TLE_LINE1":"1 24812U 97026A   16237.33351853 -.00000187  00000-0  00000+0 0  9997","TLE_LINE2":"2 24812   0.0213  89.3493 0003045  60.9767 209.6875  1.00273525 70423","LAUNCH_DATE":"1997-05-24","LAUNCH_SITE":"TYURATAM MISSILE AND SPACE COMPLEX","OWNER":"UNITED STATES OF AMERICA","ORBIT_TYPE":"Geosynchronous","OPERATIONAL_STATUS":"Operational","satInfo":{"lng":-103.13448860998403,"lat":2.150935139193651,"elevation":-6.468177345247575,"azimuth":58.13448860998401,"range":42399.74542009328,"height":35781.3906643827,"velocity":3.075279842278266},"x":-336.54995392838936,"y":76.18115874548957,"dx":-0.6988190299769804,"dy":-2.99482855463632,"maxAlt":341.897391672337,"minAlt":341.65078752728317},{"OBJECT_ID":"1997-050A","OBJECT_NAME":"AMC-3 (GE-3)","NORAD_CAT_ID":"24936","OBJECT_TYPE":"PAYLOAD","PERIOD":"1436.118","INCLINATION":"0.0598","APOGEE":"35794.614","PERIGEE":"35779.417","ECCENTRICITY":"0.0001802","MEAN_MOTION":"1.0027029","TLE_LINE1":"1 24936U 97050A   16238.88624978 -.00000300 +00000-0 +00000-0 0  9991","TLE_LINE2":"2 24936 000.0598 285.1641 0001802 275.0087 026.4477 01.00270290016520","LAUNCH_DATE":"1997-09-04","LAUNCH_SITE":"AIR FORCE EASTERN TEST RANGE","OWNER":"SOCIÉTÉ EUROPÉENNE DES SATELLITES","ORBIT_TYPE":"Geosynchronous","OPERATIONAL_STATUS":"Operational","satInfo":{"lng":-82.47276624984235,"lat":-2.1011418640638326,"elevation":-10.618726104678535,"azimuth":37.472766249842344,"range":42881.357653694744,"height":35797.21228340905,"velocity":3.074434838774395},"x":-342.7290852031808,"y":-46.94053717190323,"dx":0.40274306150246064,"dy":-3.0479415355746844,"maxAlt":341.8557691797495,"minAlt":341.7098215517261},{"OBJECT_ID":"1997-059A","OBJECT_NAME":"ECHOSTAR 3","NORAD_CAT_ID":"25004","OBJECT_TYPE":"PAYLOAD","PERIOD":"1436.109","INCLINATION":"1.5438","APOGEE":"35790.520","PERIGEE":"35783.183","ECCENTRICITY":"8.7e-05","MEAN_MOTION":"1.00270876","TLE_LINE1":"1 25004U 97059A   16238.47130068 -.00000309  00000-0  00000+0 0  9992","TLE_LINE2":"2 25004   1.5438  81.5206 0000870  93.0967 267.4088  1.00270876 69220","LAUNCH_DATE":"1997-10-05","LAUNCH_SITE":"AIR FORCE EASTERN TEST RANGE","OWNER":"UNITED STATES OF AMERICA","ORBIT_TYPE":"Geosynchronous","OPERATIONAL_STATUS":"Operational","satInfo":{"lng":-73.05781239982036,"lat":3.7056669789299304,"elevation":-4.935294566336904,"azimuth":28.057812399820364,"range":42242.364076916376,"height":35795.69985233073,"velocity":3.0745034520961445},"x":-330.75712864871025,"y":-102.08276648867272,"dx":0.8959306854690134,"dy":-2.9410677795294236,"maxAlt":341.81645157830656,"minAlt":341.74598913527126},{"OBJECT_ID":"1997-076A","OBJECT_NAME":"ASTRA 1G","NORAD_CAT_ID":"25071","OBJECT_TYPE":"PAYLOAD","PERIOD":"1436.084","INCLINATION":"1.7199","APOGEE":"35800.439","PERIGEE":"35772.282","ECCENTRICITY":"0.0003339","MEAN_MOTION":"1.00272627","TLE_LINE1":"1 25071U 97076A   16238.78988852 -.00000003 +00000-0 +00000-0 0  9993","TLE_LINE2":"2 25071 001.7199 079.3721 0003339 079.5780 162.6594 01.00272627068630","LAUNCH_DATE":"1997-12-02","LAUNCH_SITE":"TYURATAM MISSILE AND SPACE COMPLEX","OWNER":"SOCIÉTÉ EUROPÉENNE DES SATELLITES","ORBIT_TYPE":"Geosynchronous","OPERATIONAL_STATUS":"Operational","satInfo":{"lng":87.57112253994246,"lat":-3.980070932458446,"elevation":-12.43984403550913,"azimuth":227.42887746005752,"range":43087.61338761072,"height":35799.51534331141,"velocity":3.0737795825813836},"x":341.5939620913448,"y":-16.475758417565753,"dx":0.13026435979051576,"dy":3.071018091588285,"maxAlt":341.91171080857333,"minAlt":341.6412990587376},{"OBJECT_ID":"1998-006B","OBJECT_NAME":"INMARSAT 3-F5","NORAD_CAT_ID":"25153","OBJECT_TYPE":"PAYLOAD","PERIOD":"1436.085","INCLINATION":"1.9878","APOGEE":"35807.798","PERIGEE":"35764.950","ECCENTRICITY":"0.0005081","MEAN_MOTION":"1.00272579","TLE_LINE1":"1 25153U 98006B   16239.21227043 -.00000315  00000-0  00000+0 0  9990","TLE_LINE2":"2 25153   1.9878  74.5194 0005081  86.0638 196.7390  1.00272579 67973","LAUNCH_DATE":"1998-02-04","LAUNCH_SITE":"FRENCH GUIANA","OWNER":"INTERNATIONAL MARITIME SATELLITE ORGANIZATION (INMARSAT)","ORBIT_TYPE":"Geosynchronous","OPERATIONAL_STATUS":"Operational","satInfo":{"lng":-57.95049460974742,"lat":3.3705662037349113,"elevation":-5.270223573914436,"azimuth":12.950494609747398,"range":42256.8201126893,"height":35772.886030992355,"velocity":3.075980738926054},"x":-293.0970967636064,"y":-184.21220745468793,"dx":1.6322747376462396,"dy":-2.607170245128993,"maxAlt":341.9823845332969,"minAlt":341.5708846342679},{"OBJECT_ID":"1998-014A","OBJECT_NAME":"NSS 806 (INTELSAT 806)","NORAD_CAT_ID":"25239","OBJECT_TYPE":"PAYLOAD","PERIOD":"1436.090","INCLINATION":"0.0832","APOGEE":"35805.494","PERIGEE":"35767.444","ECCENTRICITY":"0.0004512","MEAN_MOTION":"1.0027224","TLE_LINE1":"1 25239U 98014A   16239.20744501 -.00000307  00000-0  00000+0 0  9997","TLE_LINE2":"2 25239   0.0832 312.5700 0004512 204.0497 205.4708  1.00272240 67739","LAUNCH_DATE":"1998-02-28","LAUNCH_SITE":"AIR FORCE EASTERN TEST RANGE","OWNER":"SOCIÉTÉ EUROPÉENNE DES SATELLITES","ORBIT_TYPE":"Geosynchronous","OPERATIONAL_STATUS":"Operational","satInfo":{"lng":-48.0301928165889,"lat":-1.6854948113618768,"elevation":-10.219806081272027,"azimuth":3.030192816588902,"range":42810.2816630783,"height":35771.14895666075,"velocity":3.0758989731563053},"x":-257.3234229971414,"y":-231.64122301850915,"dx":2.056973304606978,"dy":-2.2869226740749813,"maxAlt":341.960257578308,"minAlt":341.5948362947463},{"OBJECT_ID":"1998-033A","OBJECT_NAME":"CHINASAT 5A (CHINASTAR1)","NORAD_CAT_ID":"25354","OBJECT_TYPE":"PAYLOAD","PERIOD":"1436.086","INCLINATION":"0.625","APOGEE":"35807.100","PERIGEE":"35765.669","ECCENTRICITY":"0.0004913","MEAN_MOTION":"1.0027254","TLE_LINE1":"1 25354U 98033A   16239.08668492 -.00000111  00000-0  00000+0 0  9999","TLE_LINE2":"2 25354   0.6250  88.8744 0004913  59.5555  20.5675  1.00272540 71323","LAUNCH_DATE":"1998-05-30","LAUNCH_SITE":"Xichang Space Center, China","OWNER":"PEOPLES REPUBLIC OF CHINA","ORBIT_TYPE":"Geosynchronous","OPERATIONAL_STATUS":"Operational","satInfo":{"lng":9.63753504533584,"lat":0.014178848833305635,"elevation":-8.563959016192053,"azimuth":305.3624649546641,"range":42620.10939490717,"height":35766.770043225515,"velocity":3.0755160066248703},"x":55.60045861127303,"y":-340.55135797391233,"dx":3.0321099378358056,"dy":0.5148864261981824,"maxAlt":341.97568114155104,"minAlt":341.5777897039888},{"OBJECT_ID":"1998-037A","OBJECT_NAME":"INTELSAT 805","NORAD_CAT_ID":"25371","OBJECT_TYPE":"PAYLOAD","PERIOD":"1436.103","INCLINATION":"0.0617","APOGEE":"35799.428","PERIGEE":"35774.011","ECCENTRICITY":"0.0003014","MEAN_MOTION":"1.00271346","TLE_LINE1":"1 25371U 98037A   16238.59820956 -.00000058  00000-0  00000+0 0  9992","TLE_LINE2":"2 25371   0.0617 284.9180 0003014 253.6117 180.0926  1.00271346 66630","LAUNCH_DATE":"1998-06-18","LAUNCH_SITE":"AIR FORCE EASTERN TEST RANGE","OWNER":"INTERNATIONAL TELECOMMUNICATIONS SATELLITE ORGANIZATION (INTELSAT)","ORBIT_TYPE":"Geosynchronous","OPERATIONAL_STATUS":"Operational","satInfo":{"lng":83.62612088823622,"lat":1.8729370563946632,"elevation":-6.7458988249097365,"azimuth":231.37387911176373,"range":42406.942803613645,"height":35757.70457856652,"velocity":3.0754931211335133},"x":339.3785789879143,"y":-40.02903059505991,"dx":0.34142853318074623,"dy":3.0564823727398793,"maxAlt":341.9020014546264,"minAlt":341.65790387869237},{"OBJECT_ID":"1998-050A","OBJECT_NAME":"ASTRA 2A","NORAD_CAT_ID":"25462","OBJECT_TYPE":"PAYLOAD","PERIOD":"1436.109","INCLINATION":"0.0274","APOGEE":"35795.701","PERIGEE":"35777.992","ECCENTRICITY":"0.00021","MEAN_MOTION":"1.00270893","TLE_LINE1":"1 25462U 98050A   16238.91140025 -.00000387 +00000-0 +00000-0 0  9992","TLE_LINE2":"2 25462 000.0274 167.3742 0002100 357.0833 251.7247 01.00270893010410","LAUNCH_DATE":"1998-08-30","LAUNCH_SITE":"TYURATAM MISSILE AND SPACE COMPLEX","OWNER":"SOCIÉTÉ EUROPÉENNE DES SATELLITES","ORBIT_TYPE":"Geosynchronous","OPERATIONAL_STATUS":"Operational","satInfo":{"lng":53.92860408989716,"lat":0.39158487828246896,"elevation":-8.186896083063347,"azimuth":261.0713959101028,"range":42619.308963216004,"height":35807.81537950519,"velocity":3.0738179191664905},"x":276.0536986250996,"y":-204.3842409973668,"dx":1.8098421872093666,"dy":2.484517630765825,"maxAlt":341.86620841589223,"minAlt":341.6961362605546}]